STARLINK-36409          
1 67406U 26005C   26039.25002315  .00018665  00000+0  45327-3 0  9993
2 67406  43.0000  46.6814 0001241 258.2327 185.7825 15.40681590  5457
STARLINK-36510          
1 67407U 26005D   26039.08941307  .00088802  00000+0  15028-2 0  9992
2 67407  43.0001  47.3903 0000959 272.1748  87.9002 15.50570970  4148
STARLINK-36509          
1 67408U 26005E   26039.25002315  .00040956  00000+0  98372-3 0  9991
2 67408  43.0003  46.5606 0001058 241.3218 252.4437 15.40661428  5457
STARLINK-36507          
1 67409U 26005F   26039.08872797  .00101441  00000+0  17129-2 0  9999
2 67409  43.0008  47.3849 0001733 317.0252  43.0472 15.50574798  4142
STARLINK-36508          
1 67410U 26005G   26039.25002315  .00018604  00000+0  45193-3 0  9992
2 67410  43.0006  46.8014 0001273 255.1865 139.0816 15.40672449  5455
STARLINK-36503          
1 67411U 26005H   26039.08804194  .00095559  00000+0  16155-2 0  9998
2 67411  43.0000  47.3795 0001253 308.5680  51.5068 15.50568847  4147
STARLINK-36446          
1 67412U 26005J   26039.25002315  .00022056  00000+0  53420-3 0  9992
2 67412  43.0001  46.6201 0000770 267.9074 201.0023 15.40673649  5455
STARLINK-36442          
1 67413U 26005K   26038.50970093  .00127502  00000+0  24267-2 0  9995
2 67413  42.9995  50.7799 0007343 328.0818  31.9596 15.47024107  4058
STARLINK-36506          
1 67414U 26005L   26039.08700966  .00046197  00000+0  78862-3 0  9991
2 67414  43.0008  47.3710 0001910 248.4197 111.6460 15.50578576  4144
STARLINK-36468          
1 67415U 26005M   26039.25002315 -.02076372  00000+0 -44263-1 0  9992
2 67415  43.0004  46.4245 0000888 265.8789 283.5821 15.47595734  5408
STARLINK-36487          
1 67416U 26005N   26039.25002315  .00018123  00000+0  44044-3 0  9998
2 67416  43.0004  46.7393 0001200 264.4566 154.6958 15.40674766  5453
STARLINK-36374          
1 67417U 26005P   26039.08598146  .00074706  00000+0  12668-2 0  9997
2 67417  43.0008  47.3626 0001525 276.2639  83.8048 15.50585466  4143
