CCSDS_OMM_VERS = 2.0
CREATION_DATE  = 
ORIGINATOR     = 

OBJECT_NAME    = STARLINK-36409
OBJECT_ID      = 2026-005C
CENTER_NAME    = EARTH
REF_FRAME      = TEME
TIME_SYSTEM    = UTC
MEAN_ELEMENT_THEORY = SGP/SGP4

EPOCH          = 2026-02-08T06:00:02.000160
MEAN_MOTION    = 15.40681590
ECCENTRICITY   = .00012414
INCLINATION    = 43.0000
RA_OF_ASC_NODE = 46.6814
ARG_OF_PERICENTER = 258.2327
MEAN_ANOMALY   = 185.7825

EPHEMERIS_TYPE = 0
CLASSIFICATION_TYPE = U
NORAD_CAT_ID   = 67406
ELEMENT_SET_NO = 999
REV_AT_EPOCH   = 545
BSTAR          = .45327137E-3
MEAN_MOTION_DOT = .18665E-3
MEAN_MOTION_DDOT = 0

CCSDS_OMM_VERS = 2.0
CREATION_DATE  = 
ORIGINATOR     = 

OBJECT_NAME    = STARLINK-36510
OBJECT_ID      = 2026-005D
CENTER_NAME    = EARTH
REF_FRAME      = TEME
TIME_SYSTEM    = UTC
MEAN_ELEMENT_THEORY = SGP/SGP4

EPOCH          = 2026-02-08T02:08:45.289248
MEAN_MOTION    = 15.50570970
ECCENTRICITY   = .00009593
INCLINATION    = 43.0001
RA_OF_ASC_NODE = 47.3903
ARG_OF_PERICENTER = 272.1748
MEAN_ANOMALY   = 87.9002

EPHEMERIS_TYPE = 0
CLASSIFICATION_TYPE = U
NORAD_CAT_ID   = 67407
ELEMENT_SET_NO = 999
REV_AT_EPOCH   = 414
BSTAR          = .15028359E-2
MEAN_MOTION_DOT = .88802E-3
MEAN_MOTION_DDOT = 0

CCSDS_OMM_VERS = 2.0
CREATION_DATE  = 
ORIGINATOR     = 

OBJECT_NAME    = STARLINK-36509
OBJECT_ID      = 2026-005E
CENTER_NAME    = EARTH
REF_FRAME      = TEME
TIME_SYSTEM    = UTC
MEAN_ELEMENT_THEORY = SGP/SGP4

EPOCH          = 2026-02-08T06:00:02.000160
MEAN_MOTION    = 15.40661428
ECCENTRICITY   = .00010583
INCLINATION    = 43.0003
RA_OF_ASC_NODE = 46.5606
ARG_OF_PERICENTER = 241.3218
MEAN_ANOMALY   = 252.4437

EPHEMERIS_TYPE = 0
CLASSIFICATION_TYPE = U
NORAD_CAT_ID   = 67408
ELEMENT_SET_NO = 999
REV_AT_EPOCH   = 545
BSTAR          = .98371726E-3
MEAN_MOTION_DOT = .40956E-3
MEAN_MOTION_DDOT = 0

CCSDS_OMM_VERS = 2.0
CREATION_DATE  = 
ORIGINATOR     = 

OBJECT_NAME    = STARLINK-36507
OBJECT_ID      = 2026-005F
CENTER_NAME    = EARTH
REF_FRAME      = TEME
TIME_SYSTEM    = UTC
MEAN_ELEMENT_THEORY = SGP/SGP4

EPOCH          = 2026-02-08T02:07:46.096608
MEAN_MOTION    = 15.50574798
ECCENTRICITY   = .00017336
INCLINATION    = 43.0008
RA_OF_ASC_NODE = 47.3849
ARG_OF_PERICENTER = 317.0252
MEAN_ANOMALY   = 43.0472

EPHEMERIS_TYPE = 0
CLASSIFICATION_TYPE = U
NORAD_CAT_ID   = 67409
ELEMENT_SET_NO = 999
REV_AT_EPOCH   = 414
BSTAR          = .17128575E-2
MEAN_MOTION_DOT = .101441E-2
MEAN_MOTION_DDOT = 0

CCSDS_OMM_VERS = 2.0
CREATION_DATE  = 
ORIGINATOR     = 

OBJECT_NAME    = STARLINK-36508
OBJECT_ID      = 2026-005G
CENTER_NAME    = EARTH
REF_FRAME      = TEME
TIME_SYSTEM    = UTC
MEAN_ELEMENT_THEORY = SGP/SGP4

EPOCH          = 2026-02-08T06:00:02.000160
MEAN_MOTION    = 15.40672449
ECCENTRICITY   = .00012738
INCLINATION    = 43.0006
RA_OF_ASC_NODE = 46.8014
ARG_OF_PERICENTER = 255.1865
MEAN_ANOMALY   = 139.0816

EPHEMERIS_TYPE = 0
CLASSIFICATION_TYPE = U
NORAD_CAT_ID   = 67410
ELEMENT_SET_NO = 999
REV_AT_EPOCH   = 545
BSTAR          = .451934E-3
MEAN_MOTION_DOT = .18604E-3
MEAN_MOTION_DDOT = 0

CCSDS_OMM_VERS = 2.0
CREATION_DATE  = 
ORIGINATOR     = 

OBJECT_NAME    = STARLINK-36503
OBJECT_ID      = 2026-005H
CENTER_NAME    = EARTH
REF_FRAME      = TEME
TIME_SYSTEM    = UTC
MEAN_ELEMENT_THEORY = SGP/SGP4

EPOCH          = 2026-02-08T02:06:46.823616
MEAN_MOTION    = 15.50568847
ECCENTRICITY   = .0001253
INCLINATION    = 43.0000
RA_OF_ASC_NODE = 47.3795
ARG_OF_PERICENTER = 308.5680
MEAN_ANOMALY   = 51.5068

EPHEMERIS_TYPE = 0
CLASSIFICATION_TYPE = U
NORAD_CAT_ID   = 67411
ELEMENT_SET_NO = 999
REV_AT_EPOCH   = 414
BSTAR          = .16154585E-2
MEAN_MOTION_DOT = .95559E-3
MEAN_MOTION_DDOT = 0

CCSDS_OMM_VERS = 2.0
CREATION_DATE  = 
ORIGINATOR     = 

OBJECT_NAME    = STARLINK-36446
OBJECT_ID      = 2026-005J
CENTER_NAME    = EARTH
REF_FRAME      = TEME
TIME_SYSTEM    = UTC
MEAN_ELEMENT_THEORY = SGP/SGP4

EPOCH          = 2026-02-08T06:00:02.000160
MEAN_MOTION    = 15.40673649
ECCENTRICITY   = .00007705
INCLINATION    = 43.0001
RA_OF_ASC_NODE = 46.6201
ARG_OF_PERICENTER = 267.9074
MEAN_ANOMALY   = 201.0023

EPHEMERIS_TYPE = 0
CLASSIFICATION_TYPE = U
NORAD_CAT_ID   = 67412
ELEMENT_SET_NO = 999
REV_AT_EPOCH   = 545
BSTAR          = .5342007E-3
MEAN_MOTION_DOT = .22056E-3
MEAN_MOTION_DDOT = 0

CCSDS_OMM_VERS = 2.0
CREATION_DATE  = 
ORIGINATOR     = 

OBJECT_NAME    = STARLINK-36442
OBJECT_ID      = 2026-005K
CENTER_NAME    = EARTH
REF_FRAME      = TEME
TIME_SYSTEM    = UTC
MEAN_ELEMENT_THEORY = SGP/SGP4

EPOCH          = 2026-02-07T12:13:58.160352
MEAN_MOTION    = 15.47024107
ECCENTRICITY   = .0007343
INCLINATION    = 42.9995
RA_OF_ASC_NODE = 50.7799
ARG_OF_PERICENTER = 328.0818
MEAN_ANOMALY   = 31.9596

EPHEMERIS_TYPE = 0
CLASSIFICATION_TYPE = U
NORAD_CAT_ID   = 67413
ELEMENT_SET_NO = 999
REV_AT_EPOCH   = 405
BSTAR          = .24267E-2
MEAN_MOTION_DOT = .127502E-2
MEAN_MOTION_DDOT = 0

CCSDS_OMM_VERS = 2.0
CREATION_DATE  = 
ORIGINATOR     = 

OBJECT_NAME    = STARLINK-36506
OBJECT_ID      = 2026-005L
CENTER_NAME    = EARTH
REF_FRAME      = TEME
TIME_SYSTEM    = UTC
MEAN_ELEMENT_THEORY = SGP/SGP4

EPOCH          = 2026-02-08T02:05:17.634624
MEAN_MOTION    = 15.50578576
ECCENTRICITY   = .00019101
INCLINATION    = 43.0008
RA_OF_ASC_NODE = 47.3710
ARG_OF_PERICENTER = 248.4197
MEAN_ANOMALY   = 111.6460

EPHEMERIS_TYPE = 0
CLASSIFICATION_TYPE = U
NORAD_CAT_ID   = 67414
ELEMENT_SET_NO = 999
REV_AT_EPOCH   = 414
BSTAR          = .78862392E-3
MEAN_MOTION_DOT = .46197E-3
MEAN_MOTION_DDOT = 0

CCSDS_OMM_VERS = 2.0
CREATION_DATE  = 
ORIGINATOR     = 

OBJECT_NAME    = STARLINK-36468
OBJECT_ID      = 2026-005M
CENTER_NAME    = EARTH
REF_FRAME      = TEME
TIME_SYSTEM    = UTC
MEAN_ELEMENT_THEORY = SGP/SGP4

EPOCH          = 2026-02-08T06:00:02.000160
MEAN_MOTION    = 15.47595734
ECCENTRICITY   = .00008884
INCLINATION    = 43.0004
RA_OF_ASC_NODE = 46.4245
ARG_OF_PERICENTER = 265.8789
MEAN_ANOMALY   = 283.5821

EPHEMERIS_TYPE = 0
CLASSIFICATION_TYPE = U
NORAD_CAT_ID   = 67415
ELEMENT_SET_NO = 999
REV_AT_EPOCH   = 540
BSTAR          = -.4426304E-1
MEAN_MOTION_DOT = -.2076372E-1
MEAN_MOTION_DDOT = 0

CCSDS_OMM_VERS = 2.0
CREATION_DATE  = 
ORIGINATOR     = 

OBJECT_NAME    = STARLINK-36487
OBJECT_ID      = 2026-005N
CENTER_NAME    = EARTH
REF_FRAME      = TEME
TIME_SYSTEM    = UTC
MEAN_ELEMENT_THEORY = SGP/SGP4

EPOCH          = 2026-02-08T06:00:02.000160
MEAN_MOTION    = 15.40674766
ECCENTRICITY   = .00012005
INCLINATION    = 43.0004
RA_OF_ASC_NODE = 46.7393
ARG_OF_PERICENTER = 264.4566
MEAN_ANOMALY   = 154.6958

EPHEMERIS_TYPE = 0
CLASSIFICATION_TYPE = U
NORAD_CAT_ID   = 67416
ELEMENT_SET_NO = 999
REV_AT_EPOCH   = 545
BSTAR          = .44043745E-3
MEAN_MOTION_DOT = .18123E-3
MEAN_MOTION_DDOT = 0

CCSDS_OMM_VERS = 2.0
CREATION_DATE  = 
ORIGINATOR     = 

OBJECT_NAME    = STARLINK-36374
OBJECT_ID      = 2026-005P
CENTER_NAME    = EARTH
REF_FRAME      = TEME
TIME_SYSTEM    = UTC
MEAN_ELEMENT_THEORY = SGP/SGP4

EPOCH          = 2026-02-08T02:03:48.798144
MEAN_MOTION    = 15.50585466
ECCENTRICITY   = .00015252
INCLINATION    = 43.0008
RA_OF_ASC_NODE = 47.3626
ARG_OF_PERICENTER = 276.2639
MEAN_ANOMALY   = 83.8048

EPHEMERIS_TYPE = 0
CLASSIFICATION_TYPE = U
NORAD_CAT_ID   = 67417
ELEMENT_SET_NO = 999
REV_AT_EPOCH   = 414
BSTAR          = .12668089E-2
MEAN_MOTION_DOT = .74706E-3
MEAN_MOTION_DDOT = 0

